<?xml version="1.0" encoding="UTF-8"?>
<ndm xmlns:xsi="http://www.w3.org/2001/XMLSchema-instance" xsi:noNamespaceSchemaLocation="https://sanaregistry.org/r/ndmxml_unqualified/ndmxml-2.0.0-master-2.0.xsd">
<omm id="CCSDS_OMM_VERS" version="2.0">
<header><CREATION_DATE/><ORIGINATOR/></header><body><segment><metadata><OBJECT_NAME>ORBCOMM FM33 [-]</OBJECT_NAME><OBJECT_ID>1999-065D</OBJECT_ID><CENTER_NAME>EARTH</CENTER_NAME><REF_FRAME>TEME</REF_FRAME><TIME_SYSTEM>UTC</TIME_SYSTEM><MEAN_ELEMENT_THEORY>SGP4</MEAN_ELEMENT_THEORY></metadata><data><meanElements><EPOCH>2024-01-07T06:58:16.259808</EPOCH><MEAN_MOTION>14.37159153</MEAN_MOTION><ECCENTRICITY>.0010506</ECCENTRICITY><INCLINATION>45.0315</INCLINATION><RA_OF_ASC_NODE>338.0711</RA_OF_ASC_NODE><ARG_OF_PERICENTER>295.1303</ARG_OF_PERICENTER><MEAN_ANOMALY>205.1485</MEAN_ANOMALY></meanElements><tleParameters><EPHEMERIS_TYPE>0</EPHEMERIS_TYPE><CLASSIFICATION_TYPE>U</CLASSIFICATION_TYPE><NORAD_CAT_ID>25983</NORAD_CAT_ID><ELEMENT_SET_NO>999</ELEMENT_SET_NO><REV_AT_EPOCH>26019</REV_AT_EPOCH><BSTAR>.45359E-3</BSTAR><MEAN_MOTION_DOT>.122E-4</MEAN_MOTION_DOT><MEAN_MOTION_DDOT>0</MEAN_MOTION_DDOT></tleParameters></data></segment></body></omm>
<omm id="CCSDS_OMM_VERS" version="2.0">
<header><CREATION_DATE/><ORIGINATOR/></header><body><segment><metadata><OBJECT_NAME>ORBCOMM FM36 [-]</OBJECT_NAME><OBJECT_ID>1999-065E</OBJECT_ID><CENTER_NAME>EARTH</CENTER_NAME><REF_FRAME>TEME</REF_FRAME><TIME_SYSTEM>UTC</TIME_SYSTEM><MEAN_ELEMENT_THEORY>SGP4</MEAN_ELEMENT_THEORY></metadata><data><meanElements><EPOCH>2024-01-07T04:31:05.653632</EPOCH><MEAN_MOTION>14.35025221</MEAN_MOTION><ECCENTRICITY>.0004208</ECCENTRICITY><INCLINATION>45.0413</INCLINATION><RA_OF_ASC_NODE>61.9130</RA_OF_ASC_NODE><ARG_OF_PERICENTER>202.0155</ARG_OF_PERICENTER><MEAN_ANOMALY>158.0513</MEAN_ANOMALY></meanElements><tleParameters><EPHEMERIS_TYPE>0</EPHEMERIS_TYPE><CLASSIFICATION_TYPE>U</CLASSIFICATION_TYPE><NORAD_CAT_ID>25984</NORAD_CAT_ID><ELEMENT_SET_NO>999</ELEMENT_SET_NO><REV_AT_EPOCH>25864</REV_AT_EPOCH><BSTAR>.39732E-3</BSTAR><MEAN_MOTION_DOT>.1001E-4</MEAN_MOTION_DOT><MEAN_MOTION_DDOT>0</MEAN_MOTION_DDOT></tleParameters></data></segment></body></omm>
<omm id="CCSDS_OMM_VERS" version="2.0">
<header><CREATION_DATE/><ORIGINATOR/></header><body><segment><metadata><OBJECT_NAME>ORBCOMM FM35 [+]</OBJECT_NAME><OBJECT_ID>1999-065F</OBJECT_ID><CENTER_NAME>EARTH</CENTER_NAME><REF_FRAME>TEME</REF_FRAME><TIME_SYSTEM>UTC</TIME_SYSTEM><MEAN_ELEMENT_THEORY>SGP4</MEAN_ELEMENT_THEORY></metadata><data><meanElements><EPOCH>2024-01-07T04:44:51.425088</EPOCH><MEAN_MOTION>14.34685093</MEAN_MOTION><ECCENTRICITY>.000488</ECCENTRICITY><INCLINATION>45.0411</INCLINATION><RA_OF_ASC_NODE>64.1605</RA_OF_ASC_NODE><ARG_OF_PERICENTER>269.9889</ARG_OF_PERICENTER><MEAN_ANOMALY>90.0399</MEAN_ANOMALY></meanElements><tleParameters><EPHEMERIS_TYPE>0</EPHEMERIS_TYPE><CLASSIFICATION_TYPE>U</CLASSIFICATION_TYPE><NORAD_CAT_ID>25985</NORAD_CAT_ID><ELEMENT_SET_NO>999</ELEMENT_SET_NO><REV_AT_EPOCH>25904</REV_AT_EPOCH><BSTAR>.38897E-3</BSTAR><MEAN_MOTION_DOT>.97E-5</MEAN_MOTION_DOT><MEAN_MOTION_DDOT>0</MEAN_MOTION_DDOT></tleParameters></data></segment></body></omm>
<omm id="CCSDS_OMM_VERS" version="2.0">
<header><CREATION_DATE/><ORIGINATOR/></header><body><segment><metadata><OBJECT_NAME>ORBCOMM FM34 [-]</OBJECT_NAME><OBJECT_ID>1999-065G</OBJECT_ID><CENTER_NAME>EARTH</CENTER_NAME><REF_FRAME>TEME</REF_FRAME><TIME_SYSTEM>UTC</TIME_SYSTEM><MEAN_ELEMENT_THEORY>SGP4</MEAN_ELEMENT_THEORY></metadata><data><meanElements><EPOCH>2024-01-07T12:18:36.062496</EPOCH><MEAN_MOTION>14.34640258</MEAN_MOTION><ECCENTRICITY>.0005493</ECCENTRICITY><INCLINATION>45.0408</INCLINATION><RA_OF_ASC_NODE>63.1773</RA_OF_ASC_NODE><ARG_OF_PERICENTER>234.7748</ARG_OF_PERICENTER><MEAN_ANOMALY>125.2586</MEAN_ANOMALY></meanElements><tleParameters><EPHEMERIS_TYPE>0</EPHEMERIS_TYPE><CLASSIFICATION_TYPE>U</CLASSIFICATION_TYPE><NORAD_CAT_ID>25986</NORAD_CAT_ID><ELEMENT_SET_NO>999</ELEMENT_SET_NO><REV_AT_EPOCH>25920</REV_AT_EPOCH><BSTAR>.40596E-3</BSTAR><MEAN_MOTION_DOT>.1017E-4</MEAN_MOTION_DOT><MEAN_MOTION_DDOT>0</MEAN_MOTION_DDOT></tleParameters></data></segment></body></omm>
<omm id="CCSDS_OMM_VERS" version="2.0">
<header><CREATION_DATE/><ORIGINATOR/></header><body><segment><metadata><OBJECT_NAME>ORBCOMM FM29 [-]</OBJECT_NAME><OBJECT_ID>2008-031C</OBJECT_ID><CENTER_NAME>EARTH</CENTER_NAME><REF_FRAME>TEME</REF_FRAME><TIME_SYSTEM>UTC</TIME_SYSTEM><MEAN_ELEMENT_THEORY>SGP4</MEAN_ELEMENT_THEORY></metadata><data><meanElements><EPOCH>2024-01-07T06:22:52.305024</EPOCH><MEAN_MOTION>14.76342994</MEAN_MOTION><ECCENTRICITY>.0006801</ECCENTRICITY><INCLINATION>48.4415</INCLINATION><RA_OF_ASC_NODE>311.2706</RA_OF_ASC_NODE><ARG_OF_PERICENTER>287.6750</ARG_OF_PERICENTER><MEAN_ANOMALY>225.5912</MEAN_ANOMALY></meanElements><tleParameters><EPHEMERIS_TYPE>0</EPHEMERIS_TYPE><CLASSIFICATION_TYPE>U</CLASSIFICATION_TYPE><NORAD_CAT_ID>33062</NORAD_CAT_ID><ELEMENT_SET_NO>999</ELEMENT_SET_NO><REV_AT_EPOCH>83617</REV_AT_EPOCH><BSTAR>.32473E-3</BSTAR><MEAN_MOTION_DOT>.2072E-4</MEAN_MOTION_DOT><MEAN_MOTION_DDOT>0</MEAN_MOTION_DDOT></tleParameters></data></segment></body></omm>
<omm id="CCSDS_OMM_VERS" version="2.0">
<header><CREATION_DATE/><ORIGINATOR/></header><body><segment><metadata><OBJECT_NAME>ORBCOMM FM39 [-]</OBJECT_NAME><OBJECT_ID>2008-031D</OBJECT_ID><CENTER_NAME>EARTH</CENTER_NAME><REF_FRAME>TEME</REF_FRAME><TIME_SYSTEM>UTC</TIME_SYSTEM><MEAN_ELEMENT_THEORY>SGP4</MEAN_ELEMENT_THEORY></metadata><data><meanElements><EPOCH>2024-01-07T06:12:22.713408</EPOCH><MEAN_MOTION>14.75446151</MEAN_MOTION><ECCENTRICITY>.0007734</ECCENTRICITY><INCLINATION>48.4440</INCLINATION><RA_OF_ASC_NODE>330.9359</RA_OF_ASC_NODE><ARG_OF_PERICENTER>265.3617</ARG_OF_PERICENTER><MEAN_ANOMALY>94.6413</MEAN_ANOMALY></meanElements><tleParameters><EPHEMERIS_TYPE>0</EPHEMERIS_TYPE><CLASSIFICATION_TYPE>U</CLASSIFICATION_TYPE><NORAD_CAT_ID>33063</NORAD_CAT_ID><ELEMENT_SET_NO>999</ELEMENT_SET_NO><REV_AT_EPOCH>83588</REV_AT_EPOCH><BSTAR>.29079E-3</BSTAR><MEAN_MOTION_DOT>.1793E-4</MEAN_MOTION_DOT><MEAN_MOTION_DDOT>0</MEAN_MOTION_DDOT></tleParameters></data></segment></body></omm>

</ndm>
