ORBCOMM FM33 [-]        
1 25983U 99065D   24007.29046597  .00001220  00000+0  45359-3 0  9994
2 25983  45.0315 338.0711 0010506 295.1303 205.1485 14.37159153260197
ORBCOMM FM36 [-]        
1 25984U 99065E   24007.18825988  .00001001  00000+0  39732-3 0  9997
2 25984  45.0413  61.9130 0004208 202.0155 158.0513 14.35025221258649
ORBCOMM FM35 [+]        
1 25985U 99065F   24007.19781742  .00000970  00000+0  38897-3 0  9993
2 25985  45.0411  64.1605 0004880 269.9889  90.0399 14.34685093259042
ORBCOMM FM34 [-]        
1 25986U 99065G   24007.51291739  .00001017  00000+0  40596-3 0  9994
2 25986  45.0408  63.1773 0005493 234.7748 125.2586 14.34640258259200
ORBCOMM FM29 [-]        
1 33062U 08031C   24007.26588316  .00002072  00000+0  32473-3 0  9990
2 33062  48.4415 311.2706 0006801 287.6750 225.5912 14.76342994836172
ORBCOMM FM39 [-]        
1 33063U 08031D   24007.25859622  .00001793  00000+0  29079-3 0  9998
2 33063  48.4440 330.9359 0007734 265.3617  94.6413 14.75446151835881
